{"fetched_at":"2026-07-10T18:07:53.733Z","source":"https://celestrak.org/NORAD/elements/gp.php?GROUP=planet&FORMAT=JSON","constellation":"superdove","records":[{"OBJECT_NAME":"FLOCK 4BE-17","OBJECT_ID":"2024-149AA","EPOCH":"2026-07-08T17:26:48.530976","CLASSIFICATION_TYPE":"U","MEAN_MOTION":15.40434288,"ECCENTRICITY":0.00039315,"INCLINATION":97.3765,"RA_OF_ASC_NODE":273.2745,"ARG_OF_PERICENTER":162.8357,"MEAN_ANOMALY":197.3023,"EPHEMERIS_TYPE":0,"NORAD_CAT_ID":60492,"ELEMENT_SET_NO":999,"REV_AT_EPOCH":10557,"BSTAR":0.00028106945,"MEAN_MOTION_DOT":0.00011296,"MEAN_MOTION_DDOT":0},{"OBJECT_NAME":"FLOCK 4BE-22","OBJECT_ID":"2024-149AC","EPOCH":"2026-07-09T12:47:07.131552","CLASSIFICATION_TYPE":"U","MEAN_MOTION":15.41863105,"ECCENTRICITY":0.00043216,"INCLINATION":97.3728,"RA_OF_ASC_NODE":274.3148,"ARG_OF_PERICENTER":170.2416,"MEAN_ANOMALY":189.8915,"EPHEMERIS_TYPE":0,"NORAD_CAT_ID":60494,"ELEMENT_SET_NO":999,"REV_AT_EPOCH":10574,"BSTAR":0.0002807107,"MEAN_MOTION_DOT":0.00011831,"MEAN_MOTION_DDOT":0},{"OBJECT_NAME":"FLOCK 4BE-34","OBJECT_ID":"2024-149AD","EPOCH":"2026-07-08T18:30:44.832672","CLASSIFICATION_TYPE":"U","MEAN_MOTION":15.41812306,"ECCENTRICITY":0.00041837,"INCLINATION":97.3774,"RA_OF_ASC_NODE":274.3812,"ARG_OF_PERICENTER":179.9988,"MEAN_ANOMALY":180.126,"EPHEMERIS_TYPE":0,"NORAD_CAT_ID":60495,"ELEMENT_SET_NO":999,"REV_AT_EPOCH":10565,"BSTAR":0.00028512917,"MEAN_MOTION_DOT":0.00011999,"MEAN_MOTION_DDOT":0},{"OBJECT_NAME":"FLOCK 4BE-32","OBJECT_ID":"2024-149AF","EPOCH":"2026-07-08T18:57:44.417088","CLASSIFICATION_TYPE":"U","MEAN_MOTION":15.4292561,"ECCENTRICITY":0.00043833,"INCLINATION":97.3712,"RA_OF_ASC_NODE":273.9609,"ARG_OF_PERICENTER":177.053,"MEAN_ANOMALY":183.0744,"EPHEMERIS_TYPE":0,"NORAD_CAT_ID":60497,"ELEMENT_SET_NO":999,"REV_AT_EPOCH":10566,"BSTAR":0.00031189442,"MEAN_MOTION_DOT":0.00013635,"MEAN_MOTION_DDOT":0},{"OBJECT_NAME":"FLOCK 4BE-11","OBJECT_ID":"2024-149AK","EPOCH":"2026-07-10T04:47:11.653152","CLASSIFICATION_TYPE":"U","MEAN_MOTION":15.43759592,"ECCENTRICITY":0.00045665,"INCLINATION":97.3696,"RA_OF_ASC_NODE":275.6385,"ARG_OF_PERICENTER":172.587,"MEAN_ANOMALY":187.5446,"EPHEMERIS_TYPE":0,"NORAD_CAT_ID":60501,"ELEMENT_SET_NO":999,"REV_AT_EPOCH":10590,"BSTAR":0.00031749865,"MEAN_MOTION_DOT":0.00014279,"MEAN_MOTION_DDOT":0},{"OBJECT_NAME":"FLOCK 4BE-24","OBJECT_ID":"2024-149AP","EPOCH":"2026-07-09T12:51:25.814016","CLASSIFICATION_TYPE":"U","MEAN_MOTION":15.43944372,"ECCENTRICITY":0.00044967,"INCLINATION":97.371,"RA_OF_ASC_NODE":275.232,"ARG_OF_PERICENTER":186.8328,"MEAN_ANOMALY":173.286,"EPHEMERIS_TYPE":0,"NORAD_CAT_ID":60505,"ELEMENT_SET_NO":999,"REV_AT_EPOCH":10581,"BSTAR":0.00034635346,"MEAN_MOTION_DOT":0.00015684,"MEAN_MOTION_DDOT":0},{"OBJECT_NAME":"FLOCK 4BE-29","OBJECT_ID":"2024-149AT","EPOCH":"2026-07-10T04:17:43.946304","CLASSIFICATION_TYPE":"U","MEAN_MOTION":15.45182166,"ECCENTRICITY":0.00029337,"INCLINATION":97.3804,"RA_OF_ASC_NODE":277.4109,"ARG_OF_PERICENTER":187.6056,"MEAN_ANOMALY":172.5149,"EPHEMERIS_TYPE":0,"NORAD_CAT_ID":60509,"ELEMENT_SET_NO":999,"REV_AT_EPOCH":10596,"BSTAR":0.00075713847,"MEAN_MOTION_DOT":0.00035949,"MEAN_MOTION_DDOT":0},{"OBJECT_NAME":"FLOCK 4BE-2","OBJECT_ID":"2024-149AV","EPOCH":"2026-07-09T15:52:13.296000","CLASSIFICATION_TYPE":"U","MEAN_MOTION":15.55382059,"ECCENTRICITY":0.00050911,"INCLINATION":97.3824,"RA_OF_ASC_NODE":278.6387,"ARG_OF_PERICENTER":188.0676,"MEAN_ANOMALY":172.0497,"EPHEMERIS_TYPE":0,"NORAD_CAT_ID":60511,"ELEMENT_SET_NO":999,"REV_AT_EPOCH":10599,"BSTAR":0.0007547884,"MEAN_MOTION_DOT":0.00051489,"MEAN_MOTION_DDOT":0},{"OBJECT_NAME":"FLOCK 4BE-13","OBJECT_ID":"2024-149AW","EPOCH":"2026-07-08T18:18:34.857216","CLASSIFICATION_TYPE":"U","MEAN_MOTION":15.42489198,"ECCENTRICITY":0.00045962,"INCLINATION":97.3713,"RA_OF_ASC_NODE":274.4064,"ARG_OF_PERICENTER":175.1537,"MEAN_ANOMALY":184.9756,"EPHEMERIS_TYPE":0,"NORAD_CAT_ID":60512,"ELEMENT_SET_NO":999,"REV_AT_EPOCH":10569,"BSTAR":0.000247636,"MEAN_MOTION_DOT":0.00010647,"MEAN_MOTION_DDOT":0},{"OBJECT_NAME":"FLOCK 4BE-27","OBJECT_ID":"2024-149AX","EPOCH":"2026-07-10T05:04:25.230432","CLASSIFICATION_TYPE":"U","MEAN_MOTION":15.34858715,"ECCENTRICITY":0.00034657,"INCLINATION":97.3822,"RA_OF_ASC_NODE":273.0785,"ARG_OF_PERICENTER":199.1987,"MEAN_ANOMALY":160.9127,"EPHEMERIS_TYPE":0,"NORAD_CAT_ID":60513,"ELEMENT_SET_NO":999,"REV_AT_EPOCH":10567,"BSTAR":0.00020358354,"MEAN_MOTION_DOT":0.00006801,"MEAN_MOTION_DDOT":0},{"OBJECT_NAME":"FLOCK 4BE-9","OBJECT_ID":"2024-149AY","EPOCH":"2026-07-09T00:52:37.051680","CLASSIFICATION_TYPE":"U","MEAN_MOTION":15.41465848,"ECCENTRICITY":0.00030915,"INCLINATION":97.3785,"RA_OF_ASC_NODE":274.5287,"ARG_OF_PERICENTER":188.647,"MEAN_ANOMALY":171.4725,"EPHEMERIS_TYPE":0,"NORAD_CAT_ID":60514,"ELEMENT_SET_NO":999,"REV_AT_EPOCH":10568,"BSTAR":0.00027016402,"MEAN_MOTION_DOT":0.00011231,"MEAN_MOTION_DDOT":0},{"OBJECT_NAME":"FLOCK 4BE-6","OBJECT_ID":"2024-149BA","EPOCH":"2026-07-09T12:54:19.114272","CLASSIFICATION_TYPE":"U","MEAN_MOTION":15.40208441,"ECCENTRICITY":0.00037495,"INCLINATION":97.3785,"RA_OF_ASC_NODE":274.3506,"ARG_OF_PERICENTER":190.1584,"MEAN_ANOMALY":169.9587,"EPHEMERIS_TYPE":0,"NORAD_CAT_ID":60516,"ELEMENT_SET_NO":999,"REV_AT_EPOCH":10571,"BSTAR":0.00026875504,"MEAN_MOTION_DOT":0.00010716,"MEAN_MOTION_DDOT":0},{"OBJECT_NAME":"FLOCK 4BE-14","OBJECT_ID":"2024-149BB","EPOCH":"2026-07-10T00:28:02.972640","CLASSIFICATION_TYPE":"U","MEAN_MOTION":15.41739843,"ECCENTRICITY":0.00047847,"INCLINATION":97.3693,"RA_OF_ASC_NODE":274.9946,"ARG_OF_PERICENTER":194.1657,"MEAN_ANOMALY":165.9456,"EPHEMERIS_TYPE":0,"NORAD_CAT_ID":60517,"ELEMENT_SET_NO":999,"REV_AT_EPOCH":10584,"BSTAR":0.00030254215,"MEAN_MOTION_DOT":0.00012708,"MEAN_MOTION_DDOT":0},{"OBJECT_NAME":"FLOCK 4BE-1","OBJECT_ID":"2024-149BC","EPOCH":"2026-07-09T00:55:56.414496","CLASSIFICATION_TYPE":"U","MEAN_MOTION":15.43357693,"ECCENTRICITY":0.00044346,"INCLINATION":97.3773,"RA_OF_ASC_NODE":275.361,"ARG_OF_PERICENTER":196.2754,"MEAN_ANOMALY":163.8352,"EPHEMERIS_TYPE":0,"NORAD_CAT_ID":60518,"ELEMENT_SET_NO":999,"REV_AT_EPOCH":10574,"BSTAR":0.00029886531,"MEAN_MOTION_DOT":0.00013252,"MEAN_MOTION_DDOT":0},{"OBJECT_NAME":"FLOCK 4BE-28","OBJECT_ID":"2024-149BD","EPOCH":"2026-07-09T20:40:17.789664","CLASSIFICATION_TYPE":"U","MEAN_MOTION":15.45968446,"ECCENTRICITY":0.00044922,"INCLINATION":97.3741,"RA_OF_ASC_NODE":276.9903,"ARG_OF_PERICENTER":190.556,"MEAN_ANOMALY":169.5596,"EPHEMERIS_TYPE":0,"NORAD_CAT_ID":60519,"ELEMENT_SET_NO":999,"REV_AT_EPOCH":10594,"BSTAR":0.00071699548,"MEAN_MOTION_DOT":0.00034967,"MEAN_MOTION_DDOT":0},{"OBJECT_NAME":"FLOCK 4BE-5","OBJECT_ID":"2024-149CV","EPOCH":"2026-07-10T05:09:35.225856","CLASSIFICATION_TYPE":"U","MEAN_MOTION":15.40941993,"ECCENTRICITY":0.00034606,"INCLINATION":97.3841,"RA_OF_ASC_NODE":275.446,"ARG_OF_PERICENTER":186.4153,"MEAN_ANOMALY":173.705,"EPHEMERIS_TYPE":0,"NORAD_CAT_ID":60559,"ELEMENT_SET_NO":999,"REV_AT_EPOCH":10582,"BSTAR":0.00027697306,"MEAN_MOTION_DOT":0.00011318,"MEAN_MOTION_DDOT":0}]}
